NORAD_CAT_ID,OBJECT_NAME,OBJECT_TYPE,EPOCH,MEAN_MOTION,ECCENTRICITY,INCLINATION,RA_OF_ASC_NODE,ARG_OF_PERICENTER,MEAN_ANOMALY,BSTAR,MEAN_MOTION_DOT,MEAN_MOTION_DDOT,TLE_LINE0,TLE_LINE1,TLE_LINE2,SEMIMAJOR_AXIS,PERIOD,APOGEE,PERIGEE,DECAYED
55927.0,STARLINK-5919,PAYLOAD,2023-09-23 12:39:37,14.98330073,0.0002941,70.0018,48.9468,262.7214,97.3611,-2.3453e-05,-3.73e-06,0.0,0 STARLINK-5919,1 55927U 23037P   23266.52751641 -.00000373  00000-0 -23453-4 0  9999,2 55927  70.0018  48.9468 0002941 262.7214  97.3611 14.98330073 29292,6950.193,96.107,574.102,570.014,0.0
55927.0,STARLINK-5919,PAYLOAD,2023-09-24 14:17:46,14.98326536,0.0003003,70.0016,46.2536,263.9295,96.1522,-0.00011777,-1.498e-05,0.0,0 STARLINK-5919,1 55927U 23037P   23267.59568093 -.00001498  00000-0 -11777-3 0  9998,2 55927  70.0016  46.2536 0003003 263.9295  96.1522 14.98326536 29117,6950.204,96.107,574.156,569.981,0.0
55927.0,STARLINK-5919,PAYLOAD,2023-09-24 17:30:02,14.9832844,0.0003065,70.0014,45.9166,267.1259,92.9549,-8.138e-05,-1.064e-05,0.0,0 STARLINK-5919,1 55927U 23037P   23267.72919892 -.00001064  00000-0 -81380-4 0  9997,2 55927  70.0014  45.9166 0003065 267.1259  92.9549 14.98328440 29472,6950.198,96.107,574.193,569.932,0.0
55927.0,STARLINK-5919,PAYLOAD,2023-09-24 19:06:10,14.98329816,0.000304,70.0014,45.7485,266.8327,93.2484,-8.052e-05,-1.054e-05,0.0,0 STARLINK-5919,1 55927U 23037P   23267.79595806 -.00001054  00000-0 -80520-4 0  9993,2 55927  70.0014  45.7485 0003040 266.8327  93.2484 14.98329816 29143,6950.193,96.107,574.171,569.946,0.0
55927.0,STARLINK-5919,PAYLOAD,2023-09-25 09:31:22,14.98332307,0.000328,70.0008,44.2332,270.4585,89.6198,3.6934e-05,3.48e-06,0.0,0 STARLINK-5919,1 55927U 23037P   23268.39679278  .00000348  00000-0  36934-4 0  9999,2 55927  70.0008  44.2332 0003280 270.4585  89.6198 14.98332307 29571,6950.186,96.107,574.33,569.771,0.0
55927.0,STARLINK-5919,PAYLOAD,2023-09-25 11:07:30,14.98333438,0.0003227,70.0015,44.0651,270.0635,90.0154,9.3003e-05,1.017e-05,0.0,0 STARLINK-5919,1 55927U 23037P   23268.46355034  .00001017  00000-0  93003-4 0  9992,2 55927  70.0015  44.0651 0003227 270.0635  90.0154 14.98333438 29242,6950.182,96.107,574.29,569.804,0.0
55927.0,STARLINK-5919,PAYLOAD,2023-09-25 19:08:10,14.98339803,0.0002897,70.0017,43.2242,262.4646,97.6184,0.00018137,2.072e-05,0.0,0 STARLINK-5919,1 55927U 23037P   23268.79734271  .00002072  00000-0  18137-3 0  9998,2 55927  70.0017  43.2242 0002897 262.4646  97.6184 14.98339803 29631,6950.163,96.106,574.041,570.014,0.0
55927.0,STARLINK-5919,PAYLOAD,2023-09-26 09:33:24,14.98320444,0.0003002,70.0015,41.7092,270.3329,89.7486,-9.4354e-06,-2.06e-06,0.0,0 STARLINK-5919,1 55927U 23037P   23269.39820099 -.00000206  00000-0 -94354-5 0  9995,2 55927  70.0015  41.7092 0003002 270.3329  89.7486 14.98320444 29728,6950.222,96.108,574.174,570.001,0.0
55927.0,STARLINK-5919,PAYLOAD,2023-09-26 14:21:48,14.98320045,0.0003138,70.0013,41.2043,267.3673,92.7127,-2.3872e-05,-3.78e-06,0.0,0 STARLINK-5919,1 55927U 23037P   23269.59848234 -.00000378  00000-0 -23872-4 0  9994,2 55927  70.0013  41.2043 0003138 267.3673  92.7127 14.98320045 29414,6950.224,96.108,574.27,569.908,0.0
55927.0,STARLINK-5919,PAYLOAD,2023-09-26 19:10:13,14.98321128,0.0002881,70.0018,40.6995,267.1888,92.8941,-5.9182e-06,-1.64e-06,0.0,0 STARLINK-5919,1 55927U 23037P   23269.79876247 -.00000164  00000-0 -59182-5 0  9998,2 55927  70.0018  40.6995 0002881 267.1888  92.8941 14.98321128 29449,6950.22,96.108,574.088,570.083,0.0
55927.0,STARLINK-5919,PAYLOAD,2023-09-27 09:35:25,14.98335428,0.0003106,70.0012,39.1842,268.2152,91.8651,-7.1201e-05,-9.43e-06,0.0,0 STARLINK-5919,1 55927U 23037P   23270.39959556 -.00000943  00000-0 -71201-4 0  9991,2 55927  70.0012  39.1842 0003106 268.2152  91.8651 14.98335428 29876,6950.176,96.107,574.2,569.882,0.0
55927.0,STARLINK-5919,PAYLOAD,2023-09-27 12:47:41,14.98337443,0.0003028,70.0018,38.8477,270.4408,89.6404,-4.8298e-05,-6.69e-06,0.0,0 STARLINK-5919,1 55927U 23037P   23270.53311356 -.00000669  00000-0 -48298-4 0  9992,2 55927  70.0018  38.8477 0003028 270.4408  89.6404 14.98337443 29559,6950.17,96.107,574.139,569.93,0.0
55927.0,STARLINK-5919,PAYLOAD,2023-09-27 19:12:12,14.98341968,0.0002989,70.0016,38.1741,267.3268,92.7549,1.242e-05,5.5e-07,0.0,0 STARLINK-5919,1 55927U 23037P   23270.80014732  .00000055  00000-0  12420-4 0  9995,2 55927  70.0016  38.1741 0002989 267.3268  92.7549 14.98341968 29932,6950.156,96.106,574.098,569.943,0.0
55927.0,STARLINK-5919,PAYLOAD,2023-09-28 12:49:42,14.98324814,0.0002844,70.0021,36.3228,260.4982,99.5856,6.9907e-05,7.41e-06,0.0,0 STARLINK-5919,1 55927U 23037P   23271.53451602  .00000741  00000-0  69907-4 0  9991,2 55927  70.0021  36.3228 0002844 260.4982  99.5856 14.98324814 30046,6950.209,96.107,574.051,570.097,0.0
55927.0,STARLINK-5919,PAYLOAD,2023-09-28 14:25:50,14.98324741,0.0002848,70.0021,36.1545,260.4867,99.597,6.69e-05,7.05e-06,0.0,0 STARLINK-5919,1 55927U 23037P   23271.60127634  .00000705  00000-0  66900-4 0  9994,2 55927  70.0021  36.1545 0002848 260.4867  99.5970 14.98324741 29710,6950.209,96.107,574.054,570.095,0.0
55927.0,STARLINK-5919,PAYLOAD,2023-09-28 17:38:06,14.98325512,0.0002852,70.0022,35.8179,261.02,99.0636,7.0568e-05,7.49e-06,0.0,0 STARLINK-5919,1 55927U 23037P   23271.73479613  .00000749  00000-0  70568-4 0  9998,2 55927  70.0022  35.8179 0002852 261.0200  99.0636 14.98325512 29736,6950.207,96.107,574.054,570.09,0.0
55927.0,STARLINK-5919,PAYLOAD,2023-09-29 12:51:42,14.98337434,0.0002753,70.0025,33.7982,259.8102,100.2746,2.4838e-05,2.03e-06,0.0,0 STARLINK-5919,1 55927U 23037P   23272.53590894  .00000203  00000-0  24838-4 0  9996,2 55927  70.0025  33.7982 0002753 259.8102 100.2746 14.98337434 30199,6950.17,96.107,573.948,570.122,0.0
55927.0,STARLINK-5919,PAYLOAD,2023-09-29 17:40:05,14.98347133,0.000268,70.0026,33.2935,258.5951,101.4907,0.0001596,1.813e-05,0.0,0 STARLINK-5919,1 55927U 23037P   23272.73617744  .00001813  00000-0  15960-3 0  9995,2 55927  70.0026  33.2935 0002680 258.5951 101.4907 14.98347133 30223,6950.14,96.106,573.868,570.142,0.0
55927.0,STARLINK-5919,PAYLOAD,2023-09-30 11:17:36,14.98319776,0.0003048,70.0017,31.4427,271.1696,88.9114,-9.4675e-05,-1.222e-05,0.0,0 STARLINK-5919,1 55927U 23037P   23273.47056142 -.00001222  00000-0 -94675-4 0  9993,2 55927  70.0017  31.4427 0003048 271.1696  88.9114 14.98319776 30338,6950.225,96.108,574.208,569.971,0.0
55927.0,STARLINK-5919,PAYLOAD,2023-10-01 01:42:48,14.98325137,0.0003001,70.0012,29.9262,270.9384,89.1431,-3.9585e-05,-5.65e-06,0.0,0 STARLINK-5919,1 55927U 23037P   23274.07139998 -.00000565  00000-0 -39585-4 0  9999,2 55927  70.0012  29.9262 0003001 270.9384  89.1431 14.98325137 30425,6950.208,96.107,574.159,569.987,0.0
55927.0,STARLINK-5919,PAYLOAD,2023-10-01 12:55:44,14.98341342,0.0003052,70.0004,28.7474,270.8508,89.2301,-5.8747e-05,-7.94e-06,0.0,0 STARLINK-5919,1 55927U 23037P   23274.53870990 -.00000794  00000-0 -58747-4 0  9999,2 55927  70.0004  28.7474 0003052 270.8508  89.2301 14.98341342 30491,6950.158,96.106,574.144,569.902,0.0
55927.0,STARLINK-5919,PAYLOAD,2023-10-01 14:31:52,14.98345348,0.0003133,70.0001,28.5791,269.7015,90.3785,-1.7992e-05,-3.08e-06,0.0,0 STARLINK-5919,1 55927U 23037P   23274.60546546 -.00000308  00000-0 -17992-4 0  9992,2 55927  70.0001  28.5791 0003133 269.7015  90.3785 14.98345348 30161,6950.145,96.106,574.188,569.833,0.0
55927.0,STARLINK-5919,PAYLOAD,2023-10-01 17:44:07,14.98352379,0.000306,70.0004,28.2423,271.0432,89.0376,6.9386e-05,7.35e-06,0.0,0 STARLINK-5919,1 55927U 23037P   23274.73897756  .00000735  00000-0  69386-4 0  9994,2 55927  70.0004  28.2423 0003060 271.0432  89.0376 14.98352379 30524,6950.124,96.106,574.115,569.862,0.0
55927.0,STARLINK-5919,PAYLOAD,2023-10-02 09:45:29,14.98320596,0.0002405,70.002,26.5608,250.7071,109.3828,0.00017311,1.973e-05,0.0,0 STARLINK-5919,1 55927U 23037P   23275.40659413  .00001973  00000-0  17311-3 0  9990,2 55927  70.0020  26.5608 0002405 250.7071 109.3828 14.98320596 30628,6950.222,96.108,573.759,570.415,0.0
55927.0,STARLINK-5919,PAYLOAD,2023-10-02 17:46:10,14.98323655,0.0002832,70.0007,25.7177,268.8494,91.234,0.00017136,1.952e-05,0.0,0 STARLINK-5919,1 55927U 23037P   23275.74039458  .00001952  00000-0  17136-3 0  9990,2 55927  70.0007  25.7177 0002832 268.8494  91.2340 14.98323655 30333,6950.213,96.107,574.046,570.109,0.0
55927.0,STARLINK-5919,PAYLOAD,2023-10-03 11:23:38,14.98333442,0.0002706,70.0008,23.8661,269.5152,90.5697,-6.0082e-05,-8.1e-06,0.0,0 STARLINK-5919,1 55927U 23037P   23276.47475499 -.00000810  00000-0 -60082-4 0  9993,2 55927  70.0008  23.8661 0002706 269.5152  90.5697 14.98333442 30781,6950.182,96.107,573.928,570.167,0.0
55927.0,STARLINK-5919,PAYLOAD,2023-10-03 14:35:54,14.98334412,0.0002613,70.001,23.5297,267.136,92.95,-4.5353e-05,-6.34e-06,0.0,0 STARLINK-5919,1 55927U 23037P   23276.60827366 -.00000634  00000-0 -45353-4 0  9990,2 55927  70.0010  23.5297 0002613 267.1360  92.9500 14.98334412 30460,6950.179,96.107,573.86,570.228,0.0
55927.0,STARLINK-5919,PAYLOAD,2023-10-03 17:48:10,14.98337195,0.0002615,70.0011,23.1932,267.1403,92.9457,-1.3966e-06,-1.1e-06,0.0,0 STARLINK-5919,1 55927U 23037P   23276.74179024 -.00000110  00000-0 -13966-5 0  9991,2 55927  70.0011  23.1932 0002615 267.1403  92.9457 14.98337195 30487,6950.171,96.107,573.853,570.218,0.0
55927.0,STARLINK-5919,PAYLOAD,2023-10-04 13:01:46,14.98336594,0.0002613,70.0011,21.1731,262.5064,97.5798,0.00013334,1.499e-05,0.0,0 STARLINK-5919,1 55927U 23037P   23277.54290406  .00001499  00000-0  13334-3 0  9994,2 55927  70.0011  21.1731 0002613 262.5064  97.5798 14.98336594 30607,6950.172,96.107,573.854,570.221,0.0
55927.0,STARLINK-5919,PAYLOAD,2023-10-04 16:14:02,14.98338657,0.0002563,70.0012,20.8368,262.2744,97.8124,0.00015409,1.746e-05,0.0,0 STARLINK-5919,1 55927U 23037P   23277.67642179  .00001746  00000-0  15409-3 0  9996,2 55927  70.0012  20.8368 0002563 262.2744  97.8124 14.98338657 30963,6950.166,96.106,573.812,570.25,0.0
